BEIDOU-3 M1 (C19)       
1 43001U 17069A   26117.12218557 -.00000045  00000+0  00000+0 0  9997
2 43001  56.6503  64.7651 0012125 318.4958  41.3809  1.86230945 57659
BEIDOU-3 M2 (C20)       
1 43002U 17069B   26117.06080258 -.00000044  00000+0  00000+0 0  9995
2 43002  56.6494  64.8032 0010166 339.2999  20.6277  1.86230423 57641
BEIDOU-3 M7 (C27)       
1 43107U 18003A   26114.11756823 -.00000045  00000+0  00000+0 0  9992
2 43107  54.3768 304.1996 0005304  82.0952 277.9663  1.86227876 56345
BEIDOU-3 M8 (C28)       
1 43108U 18003B   26116.21099368 -.00000057  00000+0  00000+0 0  9993
2 43108  54.3678 304.1083 0002185 285.2373  74.7389  1.86230705 56399
BEIDOU-3 M4 (C22)       
1 43207U 18018A   26117.19045973 -.00000045  00000+0  00000+0 0  9997
2 43207  56.6092  64.8286 0007867   2.3650 357.6071  1.86231023 55795
BEIDOU-3 M3 (C21)       
1 43208U 18018B   26117.25690971 -.00000046  00000+0  00000+0 0  9990
2 43208  56.6088  64.8304 0010023 330.2969  29.6144  1.86230915 55792
BEIDOU-3 M9 (C29)       
1 43245U 18029A   26117.47449544 -.00000066  00000+0  00000+0 0  9997
2 43245  54.2404 301.7205 0000966  83.9796 276.0255  1.86228076 54950
BEIDOU-3 M10 (C30)      
1 43246U 18029B   26117.40911535 -.00000065  00000+0  00000+0 0  9994
2 43246  54.2383 301.7503 0004824  35.6999 324.3267  1.86228920 54930
BEIDOU-2 IGSO-7 (C16)   
1 43539U 18057A   26113.82760630 -.00000099  00000+0  00000+0 0  9997
2 43539  55.1848 163.5332 0103271 237.5854 221.4335  1.00267626 28581
BEIDOU-3 M5 (C23)       
1 43581U 18062A   26117.09635942  .00000009  00000+0  00000+0 0  9990
2 43581  54.0832 184.0412 0004336 289.5568  70.4600  1.86228549 52687
BEIDOU-3 M6 (C24)       
1 43582U 18062B   26115.34868677 -.00000010  00000+0  00000+0 0  9993
2 43582  54.0829 184.0898 0004888  23.5128 336.5677  1.86227595 52659
BEIDOU-3 M12 (C26)      
1 43602U 18067A   26114.75012764 -.00000010  00000+0  00000+0 0  9993
2 43602  54.1783 182.8527 0007877  33.8697 326.2399  1.86227717 52128
BEIDOU-3 M11 (C25)      
1 43603U 18067B   26117.03288223  .00000011  00000+0  00000+0 0  9993
2 43603  54.1752 182.7389 0004481  21.1333 338.9501  1.86227160 52199
BEIDOU-3 M13 (C32)      
1 43622U 18072A   26116.98805852 -.00000045  00000+0  00000+0 0  9994
2 43622  56.5822  64.3480 0008846 318.5007  41.4014  1.86230948 51700
BEIDOU-3 M14 (C33)      
1 43623U 18072B   26114.70569242 -.00000024  00000+0  00000+0 0  9990
2 43623  56.5822  64.4176 0006921 342.3518  17.5993  1.86231012 51655
BEIDOU-3 M16 (C35)      
1 43647U 18078A   26117.00963713 -.00000063  00000+0  00000+0 0  9992
2 43647  54.1375 301.7792 0008106  38.5821 321.4712  1.86232321 51208
BEIDOU-3 M15 (C34)      
1 43648U 18078B   26116.60200409 -.00000059  00000+0  00000+0 0  9999
2 43648  54.1328 301.7937 0005208  50.2977 309.7445  1.86232072 51217
